CTC2_L_00546008-07
1 69384U 24435BV  26070.40850694  .00000000  00000+0  00000-0 0  9998
2 69384  98.0000  84.0000 0000000   0.0000 312.0000 14.70334635    14
CTC2_L_00546008-08
1 69385U 24877NI  26070.40850694  .00000000  00000+0  00000-0 0  9999
2 69385  98.0000  84.0000 0000000   0.0000 357.0000 14.70334635    14
CTC2_L_00546009-01
1 69386U 25243VK  26070.40850694  .00000000  00000+0  00000-0 0  9998
2 69386  98.0000  96.0000 0000000   0.0000  48.0000 14.70334635    15
CTC2_L_00546009-02
1 69387U 26480JK  26070.40850694  .00000000  00000+0  00000-0 0  9993
2 69387  98.0000  96.0000 0000000   0.0000  93.0000 14.70334635    16
CTC2_L_00546009-03
1 69388U 23239GM  26070.40850694  .00000000  00000+0  00000-0 0  9993
2 69388  98.0000  96.0000 0000000   0.0000 138.0000 14.70334635    17
CTC2_L_00546009-04
1 69389U 22096GC  26070.40850694  .00000000  00000+0  00000-0 0  9994
2 69389  98.0000  96.0000 0000000   0.0000 183.0000 14.70334635    18
CTC2_L_00546009-05
1 69390U 23733RL  26070.40850694  .00000000  00000+0  00000-0 0  9995
2 69390  98.0000  96.0000 0000000   0.0000 228.0000 14.70334635    10
CTC2_L_00546009-06
1 69391U 25345UC  26070.40850694  .00000000  00000+0  00000-0 0  9997
2 69391  98.0000  96.0000 0000000   0.0000 273.0000 14.70334635    11
CTC2_L_00546009-07
1 69392U 22086ZG  26070.40850694  .00000000  00000+0  00000-0 0  9997
2 69392  98.0000  96.0000 0000000   0.0000 318.0000 14.70334635    12
CTC2_L_00546009-08
1 69393U 26547YK  26070.40850694  .00000000  00000+0  00000-0 0  9994
2 69393  98.0000  96.0000 0000000   0.0000   3.0000 14.70334635    14
CTC2_L_00546010-01
1 69394U 24111DF  26070.40850694  .00000000  00000+0  00000-0 0  9990
2 69394  98.0000 108.0000 0000000   0.0000  54.0000 14.70334635    15
CTC2_L_00546010-02
1 69395U 23161KW  26070.40850694  .00000000  00000+0  00000-0 0  9995
2 69395  98.0000 108.0000 0000000   0.0000  99.0000 14.70334635    15
CTC2_L_00546010-03
1 69396U 22729TV  26070.40850694  .00000000  00000+0  00000-0 0  9995
2 69396  98.0000 108.0000 0000000   0.0000 144.0000 14.70334635    17
CTC2_L_00546010-04
1 69397U 25673XX  26070.40850694  .00000000  00000+0  00000-0 0  9997
2 69397  98.0000 108.0000 0000000   0.0000 189.0000 14.70334635    17
CTC2_L_00546010-05
1 69398U 22296JX  26070.40850694  .00000000  00000+0  00000-0 0  9996
2 69398  98.0000 108.0000 0000000   0.0000 234.0000 14.70334635    19
CTC2_L_00546010-06
1 69399U 22282LH  26070.40850694  .00000000  00000+0  00000-0 0  9992
2 69399  98.0000 108.0000 0000000   0.0000 279.0000 14.70334635    19
CTC2_L_00546010-07
1 69400U 22220OB  26070.40850694  .00000000  00000+0  00000-0 0  9997
2 69400  98.0000 108.0000 0000000   0.0000 324.0000 14.70334635    13
CTC2_L_00546010-08
1 69401U 22823QE  26070.40850694  .00000000  00000+0  00000-0 0  9997
2 69401  98.0000 108.0000 0000000   0.0000   9.0000 14.70334635    14
CTC2_L_00546011-01
1 69402U 22123XF  26070.40850694  .00000000  00000+0  00000-0 0  9991
2 69402  98.0000 120.0000 0000000   0.0000  60.0000 14.70334635    16
CTC2_L_00546011-02
1 69403U 25763XC  26070.40850694  .00000000  00000+0  00000-0 0  9995
2 69403  98.0000 120.0000 0000000   0.0000 105.0000 14.70334635    17
CTC2_L_00546011-03
1 69404U 22940WA  26070.40850694  .00000000  00000+0  00000-0 0  9990
2 69404  98.0000 120.0000 0000000   0.0000 150.0000 14.70334635    18
CTC2_L_00546011-04
1 69405U 26733VA  26070.40850694  .00000000  00000+0  00000-0 0  9995
2 69405  98.0000 120.0000 0000000   0.0000 195.0000 14.70334635    18
CTC2_L_00546011-05
1 69406U 25746VM  26070.40850694  .00000000  00000+0  00000-0 0  9999
2 69406  98.0000 120.0000 0000000   0.0000 240.0000 14.70334635    10
CTC2_L_00546011-06
1 69407U 23672LK  26070.40850694  .00000000  00000+0  00000-0 0  9996
2 69407  98.0000 120.0000 0000000   0.0000 285.0000 14.70334635    10
CTC2_L_00546011-07
1 69408U 26291RG  26070.40850694  .00000000  00000+0  00000-0 0  9997
2 69408  98.0000 120.0000 0000000   0.0000 330.0000 14.70334635    12
CTC2_L_00546011-08
1 69409U 24133YP  26070.40850694  .00000000  00000+0  00000-0 0  9991
2 69409  98.0000 120.0000 0000000   0.0000  15.0000 14.70334635    13
CTC2_L_00546012-01
1 69410U 24793EU  26070.40850694  .00000000  00000+0  00000-0 0  9995
2 69410  98.0000 132.0000 0000000   0.0000  66.0000 14.70334635    14
CTC2_L_00546012-02
1 69411U 26212MT  26070.40850694  .00000000  00000+0  00000-0 0  9994
2 69411  98.0000 132.0000 0000000   0.0000 111.0000 14.70334635    16
CTC2_L_00546012-03
1 69412U 24313YX  26070.40850694  .00000000  00000+0  00000-0 0  9995
2 69412  98.0000 132.0000 0000000   0.0000 156.0000 14.70334635    16
CTC2_L_00546012-04
1 69413U 25243DC  26070.40850694  .00000000  00000+0  00000-0 0  9999
2 69413  98.0000 132.0000 0000000   0.0000 201.0000 14.70334635    18
CTC2_L_00546012-05
1 69414U 26915QN  26070.40850694  .00000000  00000+0  00000-0 0  9997
2 69414  98.0000 132.0000 0000000   0.0000 246.0000 14.70334635    18
CTC2_L_00546012-06
1 69415U 25608SB  26070.40850694  .00000000  00000+0  00000-0 0  9996
2 69415  98.0000 132.0000 0000000   0.0000 291.0000 14.70334635    19
CTC2_L_00546012-07
1 69416U 24393YB  26070.40850694  .00000000  00000+0  00000-0 0  9997
2 69416  98.0000 132.0000 0000000   0.0000 336.0000 14.70334635    10
CTC2_L_00546012-08
1 69417U 22246FF  26070.40850694  .00000000  00000+0  00000-0 0  9993
2 69417  98.0000 132.0000 0000000   0.0000  21.0000 14.70334635    12
CTC2_L_00546013-01
1 69418U 22040HQ  26070.40850694  .00000000  00000+0  00000-0 0  9996
2 69418  98.0000 144.0000 0000000   0.0000  72.0000 14.70334635    12
CTC2_L_00546013-02
1 69419U 23096BG  26070.40850694  .00000000  00000+0  00000-0 0  9999
2 69419  98.0000 144.0000 0000000   0.0000 117.0000 14.70334635    13
CTC2_L_00546013-03
1 69420U 25901UT  26070.40850694  .00000000  00000+0  00000-0 0  9998
2 69420  98.0000 144.0000 0000000   0.0000 162.0000 14.70334635    15
CTC2_L_00546013-04
1 69421U 24502DC  26070.40850694  .00000000  00000+0  00000-0 0  9995
2 69421  98.0000 144.0000 0000000   0.0000 207.0000 14.70334635    16
CTC2_L_00546013-05
1 69422U 23697GH  26070.40850694  .00000000  00000+0  00000-0 0  9990
2 69422  98.0000 144.0000 0000000   0.0000 252.0000 14.70334635    17
CTC2_L_00546013-06
1 69423U 25148AE  26070.40850694  .00000000  00000+0  00000-0 0  9994
2 69423  98.0000 144.0000 0000000   0.0000 297.0000 14.70334635    17
CTC2_L_00546013-07
1 69424U 22897VB  26070.40850694  .00000000  00000+0  00000-0 0  9993
2 69424  98.0000 144.0000 0000000   0.0000 342.0000 14.70334635    19
CTC2_L_00546013-08
1 69425U 26470WW  26070.40850694  .00000000  00000+0  00000-0 0  9995
2 69425  98.0000 144.0000 0000000   0.0000  27.0000 14.70334635    10
CTC2_L_00546014-01
1 69426U 22648XH  26070.40850694  .00000000  00000+0  00000-0 0  9999
2 69426  98.0000 156.0000 0000000   0.0000  78.0000 14.70334635    10
CTC2_L_00546014-02
1 69427U 25657JT  26070.40850694  .00000000  00000+0  00000-0 0  9993
2 69427  98.0000 156.0000 0000000   0.0000 123.0000 14.70334635    12
CTC2_L_00546014-03
1 69428U 23151HF  26070.40850694  .00000000  00000+0  00000-0 0  9991
2 69428  98.0000 156.0000 0000000   0.0000 168.0000 14.70334635    12
CTC2_L_00546014-04
1 69429U 25746C   26070.40850694  .00000000  00000+0  00000-0 0  9994
2 69429  98.0000 156.0000 0000000   0.0000 213.0000 14.70334635    14
CTC2_L_00546014-05
1 69430U 26207XG  26070.40850694  .00000000  00000+0  00000-0 0  9999
2 69430  98.0000 156.0000 0000000   0.0000 258.0000 14.70334635    15
CTC2_L_00546014-06
1 69431U 22486BJ  26070.40850694  .00000000  00000+0  00000-0 0  9995
2 69431  98.0000 156.0000 0000000   0.0000 303.0000 14.70334635    17
CTC2_L_00546014-07
1 69432U 24998TT  26070.40850694  .00000000  00000+0  00000-0 0  9996
2 69432  98.0000 156.0000 0000000   0.0000 348.0000 14.70334635    17
CTC2_L_00546014-08
1 69433U 25192NY  26070.40850694  .00000000  00000+0  00000-0 0  9994
2 69433  98.0000 156.0000 0000000   0.0000  33.0000 14.70334635    19
CTC2_L_00546015-01
1 69434U 22844PN  26070.40850694  .00000000  00000+0  00000-0 0  9996
2 69434  98.0000 168.0000 0000000   0.0000  84.0000 14.70334635    19
CTC2_L_00546015-02
1 69435U 24529X   26070.40850694  .00000000  00000+0  00000-0 0  9999
2 69435  98.0000 168.0000 0000000   0.0000 129.0000 14.70334635    10
CTC2_L_00546015-03
1 69436U 22418QJ  26070.40850694  .00000000  00000+0  00000-0 0  9995
2 69436  98.0000 168.0000 0000000   0.0000 174.0000 14.70334635    11
CTC2_L_00546015-04
1 69437U 25917EE  26070.40850694  .00000000  00000+0  00000-0 0  9993
2 69437  98.0000 168.0000 0000000   0.0000 219.0000 14.70334635    12
CTC2_L_00546015-05
1 69438U 24084YC  26070.40850694  .00000000  00000+0  00000-0 0  9998
2 69438  98.0000 168.0000 0000000   0.0000 264.0000 14.70334635    13
CTC2_L_00546015-06
1 69439U 24943AI  26070.40850694  .00000000  00000+0  00000-0 0  9993
2 69439  98.0000 168.0000 0000000   0.0000 309.0000 14.70334635    14
CTC2_L_00546015-07
1 69440U 22353RC  26070.40850694  .00000000  00000+0  00000-0 0  9998
2 69440  98.0000 168.0000 0000000   0.0000 354.0000 14.70334635    16
CTC2_L_00546015-08
1 69441U 22914XW  26070.40850694  .00000000  00000+0  00000-0 0  9992
2 69441  98.0000 168.0000 0000000   0.0000  39.0000 14.70334635    17
CTC2_L_00546016-01
1 69442U 26152OD  26070.40850694  .00000000  00000+0  00000-0 0  9991
2 69442  98.0000 180.0000 0000000   0.0000  90.0000 14.70334635    19
CTC2_L_00546016-02
1 69443U 26637M   26070.40850694  .00000000  00000+0  00000-0 0  9990
2 69443  98.0000 180.0000 0000000   0.0000 135.0000 14.70334635    10
CTC2_L_00546016-03
1 69444U 22776EX  26070.40850694  .00000000  00000+0  00000-0 0  9991
2 69444  98.0000 180.0000 0000000   0.0000 180.0000 14.70334635    11
CTC2_L_00546016-04
1 69445U 24668BH  26070.40850694  .00000000  00000+0  00000-0 0  9994
2 69445  98.0000 180.0000 0000000   0.0000 225.0000 14.70334635    12
